OBJECT_NAME,OBJECT_ID,EPOCH,MEAN_MOTION,ECCENTRICITY,INCLINATION,RA_OF_ASC_NODE,ARG_OF_PERICENTER,MEAN_ANOMALY,EPHEMERIS_TYPE,CLASSIFICATION_TYPE,NORAD_CAT_ID,ELEMENT_SET_NO,REV_AT_EPOCH,BSTAR,MEAN_MOTION_DOT,MEAN_MOTION_DDOT
SINOD-D 1,2015-058E,2025-09-01T06:09:11.512800,14.92512037,.01384261,64.7761,81.6756,166.3190,194.1738,0,U,40968,999,7348,.75151943E-3,.9165E-4,0
SNAP-3 ALICE,2015-058G,2025-09-01T06:58:58.683936,15.24511213,.00674594,64.7661,351.8125,168.0066,192.2689,0,U,40970,999,7241,.19527752E-2,.51629E-3,0
LMRST-SAT,2015-058H,2025-09-01T00:15:43.758432,14.88228859,.0151729,64.7759,92.0319,169.1510,191.2938,0,U,40971,999,7048,.54360231E-3,.6064E-4,0
SNAP-3 EDDIE,2015-058J,2025-09-01T05:57:57.758688,15.25053316,.00719341,64.7583,344.2353,170.4507,189.8010,0,U,40972,999,7452,.19382507E-2,.52583E-3,0
PROPCUBE 3,2015-058K,2025-08-31T16:54:45.396576,14.91306488,.01459365,64.7692,75.2210,171.3306,189.0381,0,U,40973,999,7158,.68240762E-3,.8202E-4,0
BISONSAT,2015-058L,2025-09-01T02:33:04.149792,15.07573109,.01060279,64.7642,22.5640,169.6257,190.7088,0,U,40974,999,7190,.16439406E-2,.28504E-3,0
SNAP-3 JIMI,2015-058M,2025-08-31T21:24:51.160320,14.97693144,.01298007,64.7672,52.2308,170.3850,189.9797,0,U,40975,999,7082,.11288276E-2,.15644E-3,0
PROPCUBE 1 (FLORA),2015-058N,2025-09-01T02:38:58.708608,14.86920369,.01512599,64.7746,109.8045,171.0072,189.3806,0,U,40976,999,7324,.49099538E-3,.5259E-4,0
SINOD-D 3,2015-058P,2025-08-31T22:28:47.695296,14.90818978,.01407635,64.7727,97.1404,170.3294,190.0582,0,U,40977,999,7158,.65231228E-3,.7616E-4,0
APSTAR-9,2015-059A,2025-09-01T06:25:08.327136,1.00273374,.00028638,0.0313,12.5621,161.8813,44.5296,0,U,40982,999,3622,0,-.262E-5,0
TURKSAT 4B,2015-060A,2025-09-01T04:16:01.081056,1.00270451,.00023746,0.0143,222.1150,281.5640,310.8813,0,U,40984,999,3619,0,.118E-5,0
TIANHUI 1-03,2015-061A,2025-09-01T08:56:10.169088,15.96270329,.0006518,97.5244,41.1324,233.9463,126.1210,0,U,40988,999,54956,.79476E-3,.327613E-2,.44962E-4
NAVSTAR 75 (USA 265),2015-062A,2025-09-01T02:29:00.576096,2.00567144,.01062009,56.7593,41.9689,227.9065,131.2098,0,U,41019,999,7203,0,-.37E-6,0
ZHONGXING-2C,2015-063A,2025-09-01T03:41:10.939776,1.00271007,.00079228,0.0197,140.8167,71.9419,286.5426,0,U,41021,999,3609,0,-.321E-5,0
YAOGAN-28,2015-064A,2025-09-01T07:45:00.410688,15.23830628,.00147499,97.2686,25.1815,111.9776,248.3031,0,U,41026,999,54665,.53856363E-3,.1296E-3,0
GSAT-15,2015-065A,2025-09-01T03:10:38.571168,1.00273604,.00027262,0.0916,266.0103,218.8687,356.8254,0,U,41028,999,3590,0,-.255E-5,0
BADR-7 (ARABSAT-6B),2015-065B,2025-09-01T05:52:00.163776,1.00271021,.00056551,0.0325,214.2402,2.4520,237.9492,0,U,41029,999,3586,0,.148E-5,0
COSMOS 2510,2015-066A,2025-08-15T14:55:39.366624,2.00414566,.7195458,63.1851,28.5939,273.6846,14.2516,0,U,41032,999,7138,0,.1257E-4,0
LAOSAT 1,2015-067A,2025-09-01T06:21:16.197984,1.00270830,.00028732,0.0190,19.3188,78.8710,106.3187,0,U,41034,999,3596,0,-.34E-5,0
TELSTAR 12V,2015-068A,2025-09-01T05:40:16.288896,1.00271884,.00022392,0.0151,119.0130,35.3489,256.3546,0,U,41036,999,3572,0,-.116E-5,0
YAOGAN-29,2015-069A,2025-09-01T07:34:39.732960,14.82716016,.00006971,98.0327,267.0895,171.0335,189.0891,0,U,41038,999,52781,.11994783E-3,.914E-5,0
ELEKTRO-L 2,2015-074A,2025-09-01T05:40:31.264608,1.00272447,.00017524,5.9600,74.0820,164.4135,172.8220,0,U,41105,999,3560,0,-.114E-5,0
COSMOS 2513,2015-075A,2025-09-01T04:12:21.676896,1.00271877,.0001917,0.0423,104.2760,35.3120,344.3383,0,U,41121,999,3565,0,-.135E-5,0
VELOX-CI,2015-077A,2025-09-01T00:41:11.377824,15.37255031,.00064211,14.9814,143.2533,332.9145,27.0843,0,U,41166,999,53797,.5542908E-3,.21922E-3,0
KENT RIDGE 1,2015-077B,2025-09-01T05:06:25.311744,15.20491841,.00088698,14.9793,251.1958,129.8042,230.3061,0,U,41167,999,53700,.2613464E-3,.6639E-4,0
DAMPE,2015-078A,2025-09-01T06:42:19.430784,15.29674396,.00130405,97.4528,243.6142,28.7611,331.4345,0,U,41173,999,54036,.94706374E-4,.2651E-4,0
GSAT0209 (GALILEO 12),2015-079A,2025-08-31T20:28:31.693440,1.70474038,.00037561,55.6477,109.2058,351.8749,8.2066,0,U,41174,999,5984,0,.3E-7,0
GSAT0208 (GALILEO 11),2015-079B,2025-08-29T03:22:03.964224,1.70473709,.0002869,55.6445,109.2775,9.0089,351.0850,0,U,41175,999,6021,0,-.6E-7,0
ORBCOMM FM114,2015-081A,2025-09-01T04:35:12.220224,14.58311431,.00026233,47.0026,287.8484,314.0689,45.9981,0,U,41179,999,51556,.25801137E-3,.1035E-4,0
ORBCOMM FM110,2015-081D,2025-09-01T02:45:26.072640,14.58320118,.00028151,47.0019,287.7472,212.4323,147.6390,0,U,41182,999,51542,.30905808E-3,.1274E-4,0
ORBCOMM FM118,2015-081E,2025-09-01T03:31:39.127296,14.58303949,.00023685,47.0039,287.8469,166.5900,193.5049,0,U,41183,999,51553,.28959397E-3,.1182E-4,0
