SINOD-D 1               
1 40968U 15058E   25244.25638325  .00009165  00000+0  75152-3 0  9990
2 40968  64.7761  81.6756 0138426 166.3190 194.1738 14.92512037 73482
SNAP-3 ALICE            
1 40970U 15058G   25244.29095699  .00051629  00000+0  19528-2 0  9994
2 40970  64.7661 351.8125 0067459 168.0066 192.2689 15.24511213 72411
LMRST-SAT               
1 40971U 15058H   25244.01092313  .00006064  00000+0  54360-3 0  9992
2 40971  64.7759  92.0319 0151729 169.1510 191.2938 14.88228859 70480
SNAP-3 EDDIE            
1 40972U 15058J   25244.24858517  .00052583  00000+0  19383-2 0  9996
2 40972  64.7583 344.2353 0071934 170.4507 189.8010 15.25053316 74525
PROPCUBE 3              
1 40973U 15058K   25243.70469209  .00008202  00000+0  68241-3 0  9990
2 40973  64.7692  75.2210 0145936 171.3306 189.0381 14.91306488 71580
BISONSAT                
1 40974U 15058L   25244.10629803  .00028504  00000+0  16439-2 0  9992
2 40974  64.7642  22.5640 0106027 169.6257 190.7088 15.07573109 71904
SNAP-3 JIMI             
1 40975U 15058M   25243.89225880  .00015644  00000+0  11288-2 0  9993
2 40975  64.7672  52.2308 0129800 170.3850 189.9797 14.97693144 70828
PROPCUBE 1 (FLORA)      
1 40976U 15058N   25244.11040172  .00005259  00000+0  49100-3 0  9995
2 40976  64.7746 109.8045 0151259 171.0072 189.3806 14.86920369 73249
SINOD-D 3               
1 40977U 15058P   25243.93666314  .00007616  00000+0  65231-3 0  9999
2 40977  64.7727  97.1404 0140763 170.3294 190.0582 14.90818978 71585
APSTAR-9                
1 40982U 15059A   25244.26745749 -.00000262  00000+0  00000+0 0  9993
2 40982   0.0313  12.5621 0002863 161.8813  44.5296  1.00273374 36226
TURKSAT 4B              
1 40984U 15060A   25244.17779029  .00000118  00000+0  00000+0 0  9994
2 40984   0.0143 222.1150 0002374 281.5640 310.8813  1.00270451 36193
TIANHUI 1-03            
1 40988U 15061A   25244.37233992  .00327613  44962-4  79476-3 0  9994
2 40988  97.5244  41.1324 0006518 233.9463 126.1210 15.96270329549563
NAVSTAR 75 (USA 265)    
1 41019U 15062A   25244.10347889 -.00000037  00000+0  00000+0 0  9995
2 41019  56.7593  41.9689 0106200 227.9065 131.2098  2.00567144 72034
ZHONGXING-2C            
1 41021U 15063A   25244.15359884 -.00000321  00000+0  00000+0 0  9998
2 41021   0.0197 140.8167 0007922  71.9419 286.5426  1.00271007 36094
YAOGAN-28               
1 41026U 15064A   25244.32292142  .00012960  00000+0  53856-3 0  9998
2 41026  97.2686  25.1815 0014749 111.9776 248.3031 15.23830628546657
GSAT-15                 
1 41028U 15065A   25244.13239087 -.00000255  00000+0  00000+0 0  9993
2 41028   0.0916 266.0103 0002726 218.8687 356.8254  1.00273604 35901
BADR-7 (ARABSAT-6B)     
1 41029U 15065B   25244.24444634  .00000148  00000+0  00000+0 0  9992
2 41029   0.0325 214.2402 0005655   2.4520 237.9492  1.00271021 35869
COSMOS 2510             
1 41032U 15066A   25227.62198341  .00001257  00000+0  00000+0 0  9993
2 41032  63.1851  28.5939 7195458 273.6846  14.2516  2.00414566 71383
LAOSAT 1                
1 41034U 15067A   25244.26477081 -.00000340  00000+0  00000+0 0  9999
2 41034   0.0190  19.3188 0002873  78.8710 106.3187  1.00270830 35965
TELSTAR 12V             
1 41036U 15068A   25244.23629964 -.00000116  00000+0  00000+0 0  9999
2 41036   0.0151 119.0130 0002239  35.3489 256.3546  1.00271884 35725
YAOGAN-29               
1 41038U 15069A   25244.31573765  .00000914  00000+0  11995-3 0  9992
2 41038  98.0327 267.0895 0000697 171.0335 189.0891 14.82716016527811
ELEKTRO-L 2             
1 41105U 15074A   25244.23647297 -.00000114  00000+0  00000+0 0  9990
2 41105   5.9600  74.0820 0001752 164.4135 172.8220  1.00272447 35606
COSMOS 2513             
1 41121U 15075A   25244.17525089 -.00000135  00000+0  00000+0 0  9999
2 41121   0.0423 104.2760 0001917  35.3120 344.3383  1.00271877 35652
VELOX-CI                
1 41166U 15077A   25244.02860391  .00021922  00000+0  55429-3 0  9997
2 41166  14.9814 143.2533 0006421 332.9145  27.0843 15.37255031537975
KENT RIDGE 1            
1 41167U 15077B   25244.21279296  .00006639  00000+0  26135-3 0  9997
2 41167  14.9793 251.1958 0008869 129.8042 230.3061 15.20491841537007
DAMPE                   
1 41173U 15078A   25244.27939156  .00002651  00000+0  94706-4 0  9999
2 41173  97.4528 243.6142 0013040  28.7611 331.4345 15.29674396540361
GSAT0209 (GALILEO 12)   
1 41174U 15079A   25243.85314460  .00000003  00000+0  00000+0 0  9997
2 41174  55.6477 109.2058 0003756 351.8749   8.2066  1.70474038 59848
GSAT0208 (GALILEO 11)   
1 41175U 15079B   25241.14032366 -.00000006  00000+0  00000+0 0  9994
2 41175  55.6445 109.2775 0002869   9.0089 351.0850  1.70473709 60210
ORBCOMM FM114           
1 41179U 15081A   25244.19111366  .00001035  00000+0  25801-3 0  9999
2 41179  47.0026 287.8484 0002623 314.0689  45.9981 14.58311431515567
ORBCOMM FM110           
1 41182U 15081D   25244.11488510  .00001274  00000+0  30906-3 0  9990
2 41182  47.0019 287.7472 0002815 212.4323 147.6390 14.58320118515429
ORBCOMM FM118           
1 41183U 15081E   25244.14698064  .00001182  00000+0  28959-3 0  9994
2 41183  47.0039 287.8469 0002368 166.5900 193.5049 14.58303949515538
